JUPITER 3 (ECHOSTAR 24) 
1 57479U 23108A   26195.45242454 -.00000157  00000+0  00000+0 0  9991
2 57479   0.0108  40.5711 0001108  70.6612 248.7625  1.00272339 10915
GALAXY 37 (G-37)        
1 57493U 23112A   26197.17344942  .00000000  00000+0  00000+0 0  9994
2 57493   0.0184  49.9091 0001823  68.6969 110.8601  1.00271297 10831
LUDI TANCE-4 01A        
1 57624U 23120A   26197.00248190 -.00000188  00000+0  00000+0 0  9997
2 57624  15.0858 193.2533 0001453  16.5301 174.4684  1.00275633 10831
TJS-10                  
1 58204U 23169A   26196.78922244 -.00000261  00000+0  00000+0 0  9990
2 58204   2.6161  80.1472 0004080 115.1904 114.7974  1.00273627  9822
ZHONGXING-6E            
1 58253U 23172A   26195.70499280 -.00000370  00000+0  00000+0 0  9999
2 58253   0.0192  86.2131 0002698  23.7417 191.9164  1.00272476  9938
YAOGAN-41               
1 58582U 23197A   26197.50817425 -.00000370  00000+0  00000+0 0  9996
2 58582   3.0762 313.6099 0013903 201.0374  85.7267  1.00276306  9618
OVZON-3                 
1 58698U 24003A   26195.87143991  .00000043  00000+0  00000+0 0  9995
2 58698   0.0136 108.2863 0000368 217.1758 340.6622  1.00270475  7729
INSAT-3DS               
1 58990U 24033A   26197.15739200 -.00000166  00000+0  00000+0 0  9997
2 58990   0.0884 264.5566 0001089 224.0381 304.1257  1.00270833 47350
MERAH PUTIH 2           
1 58995U 24035A   26195.34489189 -.00000365  00000+0  00000+0 0  9992
2 58995   0.0215  82.0854 0001062  34.4456  52.7926  1.00270544  8864
TJS-11                  
1 59020U 24037A   26197.15018163 -.00000371  00000+0  00000+0 0  9992
2 59020   4.1617 327.4460 0001838 150.5911 342.5812  1.00273247  8879
HULIANWAN GAOGUI-01 (H*)
1 59069U 24040A   26196.56370677  .00000146  00000+0  00000+0 0  9993
2 59069   0.0734 333.3745 0001725  62.7563 133.8265  1.00274292  7616
EUTELSAT 36D            
1 59346U 24059A   26197.27702306  .00000000  00000+0  00000+0 0  9997
2 59346   0.0244  66.9839 0000388 158.2257 204.5222  1.00275593  8433
PAKSAT-MM1              
1 59915U 24104A   26194.56857404  .00000150  00000+0  00000+0 0  9995
2 59915   0.0311 143.3666 0001963 313.2921  77.6097  1.00269751  7795
ASTRA 1P (SES-24)       
1 60086U 24115A   26194.35091053  .00000118  00000+0  00000+0 0  9999
2 60086   0.0666 329.5187 0001497 236.9138 230.3347  1.00281209  7460
GOES 19                 
1 60133U 24119A   26197.25500961 -.00000259  00000+0  00000+0 0  9998
2 60133   0.0176 139.3391 0000391  63.8155 107.5396  1.00271307  7255
ZHONGXING-3A            
1 60179U 24122A   26196.79104245 -.00000324  00000+0  00000+0 0  9998
2 60179   0.0284 118.0048 0001717  49.1090 152.8803  1.00270068  7592
TURKSAT 6A              
1 60233U 24127A   26197.20697384  .00000000  00000+0  00000+0 0  9992
2 60233   0.0179 198.1446 0002949 329.9547 242.4281  1.00270082  7302
HULIANWAN GAOGUI-02 (H*)
1 60327U 24135A   26196.94384784 -.00000185  00000+0  00000+0 0  9997
2 60327   0.0466 358.0233 0006208  10.5217  58.0470  1.00271040  7783
ZHONGXING-4A            
1 60606U 24151A   26196.52995333 -.00000372  00000+0  00000+0 0  9995
2 60606   1.2426 270.4906 0000406 296.2264  35.6107  1.00267142  7039
HULIANWAN GAOGUI-03 (H*)
1 61503U 24181A   26196.82692263 -.00000251  00000+0  00000+0 0  9990
2 61503   0.0510 359.2926 0001047  93.7712  61.1711  1.00270412  7113
DSN-3 (KIRAMEKI-3)      
1 61733U 24198A   26197.27822464 -.00000261  00000+0  00000+0 0  9992
2 61733   0.0180  46.5559 0000860  92.3783  39.4017  1.00271562  6218
KOREASAT 6A             
1 61910U 24206A   26197.29288312 -.00000372  00000+0  00000+0 0  9992
2 61910   0.0164 100.9118 0000750 353.4171  61.2357  1.00269589  6130
OPTUS-X (ADS-01)        
1 62006U 24212A   26196.20183799 -.00000153  00000+0  00000+0 0  9996
2 62006   0.0135  63.8448 0002386  90.1044   8.1442  1.00270006  6040
GSAT-N2 (GSAT-20)       
1 62028U 24214A   26197.21208720 -.00000030  00000+0  00000+0 0  9990
2 62028   0.0714 261.9176 0002643 144.5896  31.8179  1.00271279  6189
SXM-9                   
1 62259U 24234A   26197.30561690 -.00000215  00000+0  00000+0 0  9991
2 62259   0.0159 347.6122 0004847 329.2208   2.1491  1.00269438  5864
TJS-12                  
1 62374U 24246A   26197.60114275 -.00000242  00000+0  00000+0 0  9998
2 62374   0.6085 302.2718 0001815  98.4295 256.6498  1.00268721  5853
NUVIEW ALPHA            
1 62455U 24252B   26196.25545237 -.00000225  00000+0  00000+0 0  9992
2 62455   0.0436  27.4031 0000983  54.2618 220.2947  1.00270943  4107
AGILA                   
1 62456U 24252C   26196.60739123 -.00000192  00000+0  00000+0 0  9994
2 62456   0.0493 128.1618 0001181 351.5480 184.5583  1.00270462  5444
NUVIEW BRAVO            
1 62457U 24252D   26196.25545237 -.00000224  00000+0  00000+0 0  9993
2 62457   0.0698 162.7343 0001502 343.8112 155.4099  1.00270612  4078
THURAYA-4               
1 62483U 25001A   26197.27866972  .00000129  00000+0  00000+0 0  9993
2 62483   0.0230  73.8832 0000160 218.1479 146.7103  1.00272994  4460
SHIJIAN-25 (SJ-25)      
1 62485U 25002A   26196.79329299 -.00000364  00000+0  00000+0 0  9990
2 62485   5.1794  60.9819 0052117 175.4963 109.8555  1.00263213  5643
